TDRS 3                  
1 19548U 88091B   23015.41516833 -.00000283  00000+0  00000+0 0  9997
2 19548  13.5594 349.6829 0040220 333.6053 251.9921  1.00269429112846
HST                     
1 20580U 90037B   23015.57079088  .00005458  00000+0  30228-3 0  9998
2 20580  28.4684 202.3152 0002414 159.4215 241.2249 15.11639531598597
TDRS 5                  
1 21639U 91054B   23014.36587847  .00000099  00000+0  00000+0 0  9994
2 21639  14.2202   3.0066 0027210 350.8084  83.8144  1.00275451115177
TDRS 6                  
1 22314U 93003B   23015.51286000 -.00000281  00000+0  00000+0 0  9990
2 22314  14.1431   6.2652 0007348 138.7259 108.1830  1.00280148109854
TDRS 7                  
1 23613U 95035B   23014.94262825 -.00000183  00000+0  00000+0 0  9996
2 23613  13.8953 356.9785 0025155  49.8544 131.2492  1.00267365100622
ISS (ZARYA)             
1 25544U 98067A   23015.72337065  .00015781  00000+0  28143-3 0  9996
2 25544  51.6453   3.7365 0004512 270.1896 261.4800 15.50247850378146
LANDSAT 7               
1 25682U 99020A   23015.43361338  .00000059  00000+0  21487-4 0  9994
2 25682  97.9519  60.1931 0001350 100.2366 259.9028 14.59876417263493
TERRA                   
1 25994U 99068A   23015.46868329  .00000879  00000+0  19695-3 0  9994
2 25994  98.1149  87.5184 0001930 147.8341 222.9825 14.58978873227514
TDRS 8                  
1 26388U 00034A   23014.84910946 -.00000217  00000+0  00000+0 0  9994
2 26388  10.7005  41.0873 0020045 327.8295 139.7255  1.00280614 82646
TIMED                   
1 26998U 01055B   23015.50950396  .00001878  00000+0  20304-3 0  9998
2 26998  74.0704 217.0637 0000793 323.0432  37.0695 14.89093690144705
TDRS 9                  
1 27389U 02011A   23015.06765851 -.00000184  00000+0  00000+0 0  9994
2 27389   9.4616  58.5995 0006971 237.4103 128.8990  0.99714419 77916
AQUA                    
1 27424U 02022A   23015.43873837  .00001739  00000+0  39200-3 0  9995
2 27424  98.2717 320.5853 0000716  56.1056  44.8509 14.57585444101108
TDRS 10                 
1 27566U 02055A   23014.46866955  .00000104  00000+0  00000+0 0  9990
2 27566   8.5893  48.7634 0006490 311.6700 110.7717  1.00270776 73699
SORCE                   
1 27651U 03004A   23014.96899570  .00005081  00000+0  52082-3 0  9994
2 27651  39.9944 115.8952 0021677 163.5814 196.5681 14.90680618 84655
AURA                    
1 28376U 04026A   23013.90008846  .00001537  00000+0  35136-3 0  9998
2 28376  98.2336 319.4404 0001267  87.4313 272.7030 14.57092973983879
SWIFT                   
1 28485U 04047A   23015.06066351  .00010951  00000+0  65886-3 0  9991
2 28485  20.5567 263.2689 0010217 103.9869 256.1702 15.08145155995592
THEMIS A                
1 30580U 07004A   23015.19971212 -.00000156  00000+0 -43796-1 0  9993
2 30580  12.3326 322.1142 8355259 210.3466 340.2794  0.87832653 54986
THEMIS D                
1 30797U 07004D   23015.06652822 -.00000054  00000+0  00000+0 0  9997
2 30797   8.3236 309.8097 8305814 226.0090 310.7158  0.87834825 54519
THEMIS E                
1 30798U 07004E   23015.19895409 -.00000046  00000+0  00000+0 0  9993
2 30798   9.5159 326.4576 8303184 211.2803 345.8663  0.87858822 54939
AIM                     
1 31304U 07015A   23014.51943692  .00024940  00000+0  10874-2 0  9993
2 31304  97.8626 307.2110 0004957  32.9844 327.1699 15.22158379863243
FGRST (GLAST)           
1 33053U 08029A   23014.75195740  .00003428  00000+0  17253-3 0  9998
2 33053  25.5813 165.6482 0012258 108.9745 251.2119 15.12929956805940
WISE                    
1 36119U 09071A   23014.08718653  .00015321  00000+0  42784-3 0  9994
2 36119  97.2176  49.4222 0000349 262.2212  97.8993 15.36803410727833
TDRS 11                 
1 39070U 13004A   23014.62478720  .00000101  00000+0  00000+0 0  9993
2 39070   2.7742 352.6763 0003631  42.7638 128.8771  1.00268613 36457
TDRS 12                 
1 39504U 14004A   23015.17810528 -.00000247  00000+0  00000+0 0  9995
2 39504   3.7017 351.3707 0000947 221.7583 284.2865  1.00277072 32922
GPM-CORE                
1 39574U 14009C   23015.60569754  .00022960  00000+0  32487-3 0  9990
2 39574  64.9973 186.1836 0009947 272.3783  87.6225 15.56452990504625
MMS 1                   
1 40482U 15011A   23013.71450568 -.00001179  00000+0  00000+0 0  9998
2 40482  29.4742  86.8642 8940508  72.8562  41.7625  0.28513859 13905
MMS 2                   
1 40483U 15011B   23013.72145013 -.00001179  00000+0  00000+0 0  9996
2 40483  29.4717  86.8702 8940093  72.8441  42.4927  0.28518660 13964
MMS 3                   
1 40484U 15011C   23013.73256124 -.00001179  00000+0  00000+0 0  9994
2 40484  29.4758  86.8634 8940352  72.8484  43.6446  0.28514404 13645
MMS 4                   
1 40485U 15011D   23013.72839457 -.00001179  00000+0  00000+0 0  9990
2 40485  29.4734  86.8522 8941073  72.8591  43.2088  0.28519154 13854
TDRS 13                 
1 42915U 17047A   23014.27788512 -.00000078  00000+0  00000+0 0  9994
2 42915   4.1923 335.7458 0013320 109.8572 116.2973  1.00270728 19846
JPSS-1                  
1 43013U 17073A   23015.59318877  .00000172  00000+0  10246-3 0  9993
2 43013  98.7390 316.0210 0001366 108.0376 252.0949 14.19545278267320
